NORAD_CAT_ID,OBJECT_NAME,OBJECT_TYPE,EPOCH,MEAN_MOTION,ECCENTRICITY,INCLINATION,RA_OF_ASC_NODE,ARG_OF_PERICENTER,MEAN_ANOMALY,BSTAR,MEAN_MOTION_DOT,MEAN_MOTION_DDOT,TLE_LINE0,TLE_LINE1,TLE_LINE2,SEMIMAJOR_AXIS,PERIOD,APOGEE,PERIGEE,DECAYED
51465.0,STARLINK-3401,PAYLOAD,2024-07-26 19:51:34,15.08855005,7.1e-05,53.2171,51.6054,88.2488,271.8586,0.00020698,3.009e-05,0.0,0 STARLINK-3401,1 51465U 22010K   24208.82748361  .00003009  00000-0  20698-3 0  9991,2 51465  53.2171  51.6054 0000710  88.2488 271.8586 15.08855005138128,6917.835,95.437,540.191,539.208,0.0
51465.0,STARLINK-3401,PAYLOAD,2024-07-26 21:26:57,15.08856418,7.35e-05,53.2165,51.3076,88.4123,271.6953,0.00026284,3.9e-05,0.0,0 STARLINK-3401,1 51465U 22010K   24208.89372295  .00003900  00000-0  26284-3 0  9994,2 51465  53.2165  51.3076 0000735  88.4123 271.6953 15.08856418138133,6917.83,95.437,540.204,539.187,0.0
51465.0,STARLINK-3401,PAYLOAD,2024-07-26 23:02:20,15.08857295,7.79e-05,53.2161,51.0099,88.2659,271.8423,0.00037567,5.699e-05,0.0,0 STARLINK-3401,1 51465U 22010K   24208.95996341  .00005699  00000-0  37567-3 0  9998,2 51465  53.2161  51.0099 0000779  88.2659 271.8423 15.08857295138140,6917.828,95.436,540.231,539.154,0.0
51465.0,STARLINK-3401,PAYLOAD,2024-07-27 21:17:45,15.08839038,3.83e-05,53.2173,46.8488,72.4939,287.6095,-1.8087e-07,-2.9e-06,0.0,0 STARLINK-3401,1 51465U 22010K   24209.88732959 -.00000290  00000-0 -18087-6 0  9997,2 51465  53.2173  46.8488 0000383  72.4939 287.6095 15.08839038138284,6917.883,95.438,540.013,539.483,0.0
51465.0,STARLINK-3401,PAYLOAD,2024-07-28 13:11:37,15.08831414,6.76e-05,53.218,43.8744,69.0554,291.051,-2.2133e-05,-6.4e-06,0.0,0 STARLINK-3401,1 51465U 22010K   24210.54973709 -.00000640  00000-0 -22133-4 0  9996,2 51465  53.2180  43.8744 0000676  69.0554 291.0510 15.08831414138386,6917.907,95.438,540.239,539.304,0.0
51465.0,STARLINK-3401,PAYLOAD,2024-07-28 19:33:09,15.08842047,0.0001233,53.2174,42.6875,48.8973,311.2125,7.7772e-05,9.5e-06,0.0,0 STARLINK-3401,1 51465U 22010K   24210.81469581  .00000950  00000-0  77772-4 0  9995,2 51465  53.2174  42.6875 0001233  48.8973 311.2125 15.08842047138427,6917.874,95.437,540.592,538.886,0.0
51465.0,STARLINK-3401,PAYLOAD,2024-07-28 22:43:55,15.08846901,0.0001135,53.2169,42.0891,93.5316,266.5806,0.00015601,2.196e-05,0.0,0 STARLINK-3401,1 51465U 22010K   24210.94717265  .00002196  00000-0  15601-3 0  9990,2 51465  53.2169  42.0891 0001135  93.5316 266.5806 15.08846901138445,6917.859,95.437,540.509,538.939,0.0
51465.0,STARLINK-3401,PAYLOAD,2024-07-29 19:23:56,15.08843559,0.0001166,53.2172,38.2236,95.5895,264.523,0.00032279,4.854e-05,0.0,0 STARLINK-3401,1 51465U 22010K   24211.80829551  .00004854  00000-0  32279-3 0  9991,2 51465  53.2172  38.2236 0001166  95.5895 264.5230 15.08843559138576,6917.87,95.437,540.541,538.928,0.0
51465.0,STARLINK-3401,PAYLOAD,2024-07-29 22:34:42,15.0884521,0.000108,53.2169,37.6289,93.6779,266.4336,0.00032734,4.926e-05,0.0,0 STARLINK-3401,1 51465U 22010K   24211.94077500  .00004926  00000-0  32734-3 0  9991,2 51465  53.2169  37.6289 0001080  93.6779 266.4336 15.08845210138594,6917.864,95.437,540.477,538.982,0.0
51465.0,STARLINK-3401,PAYLOAD,2024-07-30 04:56:14,15.08857814,0.0001125,53.2173,36.441,97.4765,262.6355,0.00043532,6.65e-05,0.0,0 STARLINK-3401,1 51465U 22010K   24212.20572854  .00006650  00000-0  43532-3 0  9997,2 51465  53.2173  36.4410 0001125  97.4765 262.6355 15.08857814138636,6917.826,95.436,540.469,538.913,0.0
51465.0,STARLINK-3401,PAYLOAD,2024-07-30 19:14:43,15.08843076,0.0001203,53.2175,33.7635,88.0824,272.0306,7.0709e-05,8.38e-06,0.0,0 STARLINK-3401,1 51465U 22010K   24212.80189405  .00000838  00000-0  70709-4 0  9998,2 51465  53.2175  33.7635 0001203  88.0824 272.0306 15.08843076138722,6917.871,95.437,540.568,538.904,0.0
51465.0,STARLINK-3401,PAYLOAD,2024-07-31 12:43:58,15.08830932,0.0001067,53.2162,30.4936,85.3612,274.7502,-0.00020878,-3.608e-05,0.0,0 STARLINK-3401,1 51465U 22010K   24213.53053565 -.00003608  00000-0 -20878-3 0  9997,2 51465  53.2162  30.4936 0001067  85.3612 274.7502 15.08830932138835,6917.908,95.438,540.511,539.035,0.0
51465.0,STARLINK-3401,PAYLOAD,2024-07-31 17:30:07,15.08834969,0.0001167,53.2176,29.6019,91.2524,268.8602,-7.5395e-05,-1.487e-05,0.0,0 STARLINK-3401,1 51465U 22010K   24213.72925542 -.00001487  00000-0 -75395-4 0  9999,2 51465  53.2176  29.6019 0001167  91.2524 268.8602 15.08834969138863,6917.896,95.438,540.568,538.953,0.0
51465.0,STARLINK-3401,PAYLOAD,2024-08-01 04:37:49,15.08848577,0.0001296,53.218,27.5204,84.7966,275.3174,0.00046517,7.125e-05,0.0,0 STARLINK-3401,1 51465U 22010K   24214.19293435  .00007125  00000-0  46517-3 0  9996,2 51465  53.2180  27.5204 0001296  84.7966 275.3174 15.08848577138936,6917.854,95.437,540.616,538.823,0.0
51465.0,STARLINK-3401,PAYLOAD,2024-08-01 20:31:40,15.08850301,0.0001303,53.219,24.5442,74.7299,285.3837,0.00055393,8.541e-05,0.0,0 STARLINK-3401,1 51465U 22010K   24214.85533429  .00008541  00000-0  55393-3 0  9994,2 51465  53.2190  24.5442 0001303  74.7299 285.3837 15.08850301139032,6917.849,95.437,540.615,538.813,0.0
51465.0,STARLINK-3401,PAYLOAD,2024-08-02 04:28:36,15.08858608,0.0001386,53.2188,23.058,74.8396,285.2749,0.00057616,8.898e-05,0.0,0 STARLINK-3401,1 51465U 22010K   24215.18653081  .00008898  00000-0  57616-3 0  9993,2 51465  53.2188  23.0580 0001386  74.8396 285.2749 15.08858608139080,6917.824,95.436,540.647,538.73,0.0
51465.0,STARLINK-3401,PAYLOAD,2024-08-02 20:22:28,15.0882924,0.000142,53.217,20.0855,82.8197,277.2957,0.00014283,1.985e-05,0.0,0 STARLINK-3401,1 51465U 22010K   24215.84894215  .00001985  00000-0  14283-3 0  9995,2 51465  53.2170  20.0855 0001420  82.8197 277.2957 15.08829240139183,6917.913,95.438,540.761,538.796,0.0
51465.0,STARLINK-3401,PAYLOAD,2024-08-03 10:40:57,15.08845112,0.0001509,53.2167,17.411,81.5037,278.6126,0.0012894,0.00020295,0.0,0 STARLINK-3401,1 51465U 22010K   24216.44510661  .00020295  00000-0  12894-2 0  9992,2 51465  53.2167  17.4110 0001509  81.5037 278.6126 15.08845112139279,6917.865,95.437,540.774,538.686,0.0
51465.0,STARLINK-3401,PAYLOAD,2024-08-03 17:02:29,15.08855762,0.0001508,53.2169,16.2217,78.7738,281.3424,0.0013775,0.00021712,0.0,0 STARLINK-3401,1 51465U 22010K   24216.71006487  .00021712  00000-0  13775-2 0  9992,2 51465  53.2169  16.2217 0001508  78.7738 281.3424 15.08855762139310,6917.832,95.437,540.74,538.654,0.0
51465.0,STARLINK-3401,PAYLOAD,2024-08-04 13:42:29,15.08843728,0.0001308,53.2176,12.3556,87.1307,272.9835,0.00097624,0.00015285,0.0,0 STARLINK-3401,1 51465U 22010K   24217.57117898  .00015285  00000-0  97624-3 0  9990,2 51465  53.2176  12.3556 0001308  87.1307 272.9835 15.08843728139440,6917.869,95.437,540.639,538.829,0.0
51465.0,STARLINK-3401,PAYLOAD,2024-08-04 20:04:02,15.08874116,0.0001488,53.218,11.1638,98.4626,261.6535,0.0034429,0.00054985,0.0,0 STARLINK-3401,1 51465U 22010K   24217.83613619  .00054985  00000-0  34429-2 0  9994,2 51465  53.2180  11.1638 0001488  98.4626 261.6535 15.08874116139482,6917.776,95.435,540.67,538.612,0.0
51465.0,STARLINK-3401,PAYLOAD,2024-08-05 21:30:12,15.0884712,0.0001347,53.2182,6.4064,77.1549,282.9594,0.00075479,0.00011747,0.0,0 STARLINK-3401,1 51465U 22010K   24218.89598004  .00011747  00000-0  75479-3 0  9991,2 51465  53.2182   6.4064 0001347  77.1549 282.9594 15.08847120139640,6917.859,95.437,540.655,538.792,0.0
51465.0,STARLINK-3401,PAYLOAD,2024-08-06 13:24:04,15.08835003,0.0001361,53.2188,3.4302,96.8275,263.2873,0.00078075,0.00012158,0.0,0 STARLINK-3401,1 51465U 22010K   24219.55838527  .00012158  00000-0  78075-3 0  9994,2 51465  53.2188   3.4302 0001361  96.8275 263.2873 15.08835003139748,6917.896,95.438,540.702,538.819,0.0
51465.0,STARLINK-3401,PAYLOAD,2024-08-06 16:34:50,15.08838911,0.0001177,53.2188,2.836,74.8472,285.265,0.0011488,0.00018042,0.0,0 STARLINK-3401,1 51465U 22010K   24219.69086679  .00018042  00000-0  11488-2 0  9994,2 51465  53.2188   2.8360 0001177  74.8472 285.2650 15.08838911139765,6917.884,95.438,540.563,538.934,0.0
51465.0,STARLINK-3401,PAYLOAD,2024-08-08 13:05:38,15.08853782,0.0001257,53.2182,354.5143,91.7802,268.3335,0.00047877,7.343e-05,0.0,0 STARLINK-3401,1 51465U 22010K   24221.54558419  .00007343  00000-0  47877-3 0  9991,2 51465  53.2182 354.5143 0001257  91.7802 268.3335 15.08853782140047,6917.838,95.437,540.573,538.834,0.0
51465.0,STARLINK-3401,PAYLOAD,2024-08-08 14:41:01,15.08855537,0.0001437,53.2168,354.2149,102.1769,257.9384,0.00050827,7.814e-05,0.0,0 STARLINK-3401,1 51465U 22010K   24221.61182290  .00007814  00000-0  50827-3 0  9991,2 51465  53.2168 354.2149 0001437 102.1769 257.9384 15.08855537140052,6917.833,95.437,540.692,538.704,0.0
51465.0,STARLINK-3401,PAYLOAD,2024-08-09 12:56:25,15.08846966,0.0001488,53.2149,350.0455,86.6901,273.4261,0.00040332,6.138e-05,0.0,0 STARLINK-3401,1 51465U 22010K   24222.53918255  .00006138  00000-0  40332-3 0  9999,2 51465  53.2149 350.0455 0001488  86.6901 273.4261 15.08846966140193,6917.859,95.437,540.753,538.695,0.0
51465.0,STARLINK-3401,PAYLOAD,2024-08-09 17:42:34,15.08855396,0.0001346,53.2164,349.1633,89.6568,270.4578,0.00041889,6.388e-05,0.0,0 STARLINK-3401,1 51465U 22010K   24222.73790084  .00006388  00000-0  41889-3 0  9994,2 51465  53.2164 349.1633 0001346  89.6568 270.4578 15.08855396140221,6917.833,95.437,540.629,538.767,0.0
51465.0,STARLINK-3401,PAYLOAD,2024-08-10 12:47:12,15.08842311,0.0001537,53.2166,345.5894,117.7655,242.3493,0.00030177,4.518e-05,0.0,0 STARLINK-3401,1 51465U 22010K   24223.53278180  .00004518  00000-0  30177-3 0  9992,2 51465  53.2166 345.5894 0001537 117.7655 242.3493 15.08842311140344,6917.873,95.437,540.802,538.675,0.0
51465.0,STARLINK-3401,PAYLOAD,2024-08-10 14:22:35,15.08845314,0.0001553,53.2171,345.2919,114.8835,245.2319,0.0002985,4.467e-05,0.0,0 STARLINK-3401,1 51465U 22010K   24223.59902178  .00004467  00000-0  29850-3 0  9998,2 51465  53.2171 345.2919 0001553 114.8835 245.2319 15.08845314140357,6917.864,95.437,540.803,538.655,0.0
